[{"OBJECT_NAME":"STARLINK-32420","OBJECT_ID":"2024-207V","EPOCH":"2026-03-09T22:33:23.291424","MEAN_MOTION":15.27613225,"ECCENTRICITY":0.00019085,"INCLINATION":43.0006,"RA_OF_ASC_NODE":280.0405,"ARG_OF_PERICENTER":276.6086,"MEAN_ANOMALY":83.4549,"EPHEMERIS_TYPE":0,"CLASSIFICATION_TYPE":"U","NORAD_CAT_ID":61931,"ELEMENT_SET_NO":999,"REV_AT_EPOCH":7476,"BSTAR":0.00099763493,"MEAN_MOTION_DOT":0.00027321,"MEAN_MOTION_DDOT":0},{"OBJECT_NAME":"FLOCK 4G-2","OBJECT_ID":"2025-009BE","EPOCH":"2026-03-09T15:53:23.273952","MEAN_MOTION":15.2767526,"ECCENTRICITY":0.00031811,"INCLINATION":97.4044,"RA_OF_ASC_NODE":151.2221,"ARG_OF_PERICENTER":329.2677,"MEAN_ANOMALY":30.8376,"EPHEMERIS_TYPE":0,"CLASSIFICATION_TYPE":"U","NORAD_CAT_ID":62661,"ELEMENT_SET_NO":999,"REV_AT_EPOCH":12132,"BSTAR":0.00051068481,"MEAN_MOTION_DOT":0.00013752,"MEAN_MOTION_DDOT":0}]
